{
  "type": "FeatureCollection",
  "features": [
    {
      "type": "Feature",
      "properties": {
        "norad_id": 67123,
        "name": "STARLINK-36151",
        "group": "last-30-days",
        "lat": -18.27430210931156,
        "lon": 84.60041073863096,
        "alt_km": 313.60467628517563,
        "timestamp": "2025-12-24T14:43:27.724574+00:00",
        "meta_object_name": "STARLINK-36151",
        "meta_object_id": "2025-299X",
        "meta_epoch": "2025-12-24T06:00:02.000160",
        "meta_mean_motion": 15.87856125,
        "meta_eccentricity": 0.00017487,
        "meta_inclination": 42.9978,
        "meta_ra_of_asc_node": 246.0889,
        "meta_arg_of_pericenter": 270.3042,
        "meta_mean_anomaly": 17.5664,
        "meta_ephemeris_type": 0,
        "meta_classification_type": "U",
        "meta_norad_cat_id": 67123,
        "meta_element_set_no": 999,
        "meta_rev_at_epoch": 266,
        "meta_bstar": -0.0072267645,
        "meta_mean_motion_dot": -0.01746926,
        "meta_mean_motion_ddot": 0,
        "tle_line1": "1 67123U 25299X   25358.25002315 -.01746926  00000+0 -72268-2 0  9990",
        "tle_line2": "2 67123  42.9978 246.0889 0001748 270.3042  17.5664 15.87856125  2666"
      },
      "geometry": {
        "type": "Point",
        "coordinates": [
          84.60041073863096,
          -18.27430210931156
        ]
      }
    },
    {
      "type": "Feature",
      "properties": {
        "norad_id": 67124,
        "name": "STARLINK-36195",
        "group": "last-30-days",
        "lat": -21.33247697967568,
        "lon": 88.61117129213808,
        "alt_km": 313.5390231195761,
        "timestamp": "2025-12-24T14:43:27.724584+00:00",
        "meta_object_name": "STARLINK-36195",
        "meta_object_id": "2025-299Y",
        "meta_epoch": "2025-12-24T06:00:02.000160",
        "meta_mean_motion": 15.87886536,
        "meta_eccentricity": 0.00018469,
        "meta_inclination": 42.9979,
        "meta_ra_of_asc_node": 246.0766,
        "meta_arg_of_pericenter": 265.5521,
        "meta_mean_anomaly": 27.1502,
        "meta_ephemeris_type": 0,
        "meta_classification_type": "U",
        "meta_norad_cat_id": 67124,
        "meta_element_set_no": 999,
        "meta_rev_at_epoch": 266,
        "meta_bstar": -0.0072443422,
        "meta_mean_motion_dot": -0.01753002,
        "meta_mean_motion_ddot": 0,
        "tle_line1": "1 67124U 25299Y   25358.25002315 -.01753002  00000+0 -72443-2 0  9999",
        "tle_line2": "2 67124  42.9979 246.0766 0001846 265.5521  27.1502 15.87886536  2666"
      },
      "geometry": {
        "type": "Point",
        "coordinates": [
          88.61117129213808,
          -21.33247697967568
        ]
      }
    },
    {
      "type": "Feature",
      "properties": {
        "norad_id": 67125,
        "name": "STARLINK-36219",
        "group": "last-30-days",
        "lat": -22.28390848062892,
        "lon": 89.91894907438481,
        "alt_km": 313.5973799713438,
        "timestamp": "2025-12-24T14:43:27.724594+00:00",
        "meta_object_name": "STARLINK-36219",
        "meta_object_id": "2025-299Z",
        "meta_epoch": "2025-12-24T06:00:02.000160",
        "meta_mean_motion": 15.87896707,
        "meta_eccentricity": 0.0001762,
        "meta_inclination": 42.9976,
        "meta_ra_of_asc_node": 246.0723,
        "meta_arg_of_pericenter": 266.2799,
        "meta_mean_anomaly": 27.9529,
        "meta_ephemeris_type": 0,
        "meta_classification_type": "U",
        "meta_norad_cat_id": 67125,
        "meta_element_set_no": 999,
        "meta_rev_at_epoch": 266,
        "meta_bstar": -0.0072247864,
        "meta_mean_motion_dot": -0.01749612,
        "meta_mean_motion_ddot": 0,
        "tle_line1": "1 67125U 25299Z   25358.25002315 -.01749612  00000+0 -72248-2 0  9995",
        "tle_line2": "2 67125  42.9976 246.0723 0001762 266.2799  27.9529 15.87896707  2667"
      },
      "geometry": {
        "type": "Point",
        "coordinates": [
          89.91894907438481,
          -22.28390848062892
        ]
      }
    },
    {
      "type": "Feature",
      "properties": {
        "norad_id": 67126,
        "name": "STARLINK-36223",
        "group": "last-30-days",
        "lat": -23.40678490610241,
        "lon": 91.50558328383579,
        "alt_km": 313.6369716937934,
        "timestamp": "2025-12-24T14:43:27.724622+00:00",
        "meta_object_name": "STARLINK-36223",
        "meta_object_id": "2025-299AA",
        "meta_epoch": "2025-12-24T06:00:02.000160",
        "meta_mean_motion": 15.87903971,
        "meta_eccentricity": 0.00018468,
        "meta_inclination": 42.9976,
        "meta_ra_of_asc_node": 246.0678,
        "meta_arg_of_pericenter": 267.7573,
        "meta_mean_anomaly": 28.3171,
        "meta_ephemeris_type": 0,
        "meta_classification_type": "U",
        "meta_norad_cat_id": 67126,
        "meta_element_set_no": 999,
        "meta_rev_at_epoch": 266,
        "meta_bstar": -0.0072376584,
        "meta_mean_motion_dot": -0.01752939,
        "meta_mean_motion_ddot": 0,
        "tle_line1": "1 67126U 25299AA  25358.25002315 -.01752939  00000+0 -72377-2 0  9995",
        "tle_line2": "2 67126  42.9976 246.0678 0001846 267.7573  28.3171 15.87903971  2666"
      },
      "geometry": {
        "type": "Point",
        "coordinates": [
          91.50558328383579,
          -23.40678490610241
        ]
      }
    },
    {
      "type": "Feature",
      "properties": {
        "norad_id": 67127,
        "name": "STARLINK-36164",
        "group": "last-30-days",
        "lat": -24.412889024959572,
        "lon": 92.97041768176894,
        "alt_km": 313.69239758671847,
        "timestamp": "2025-12-24T14:43:27.724636+00:00",
        "meta_object_name": "STARLINK-36164",
        "meta_object_id": "2025-299AB",
        "meta_epoch": "2025-12-24T06:00:02.000160",
        "meta_mean_motion": 15.87911328,
        "meta_eccentricity": 0.0001823,
        "meta_inclination": 42.9977,
        "meta_ra_of_asc_node": 246.0636,
        "meta_arg_of_pericenter": 268.7667,
        "meta_mean_anomaly": 28.9774,
        "meta_ephemeris_type": 0,
        "meta_classification_type": "U",
        "meta_norad_cat_id": 67127,
        "meta_element_set_no": 999,
        "meta_rev_at_epoch": 266,
        "meta_bstar": -0.0072368405,
        "meta_mean_motion_dot": -0.01753302,
        "meta_mean_motion_ddot": 0,
        "tle_line1": "1 67127U 25299AB  25358.25002315 -.01753302  00000+0 -72368-2 0  9991",
        "tle_line2": "2 67127  42.9977 246.0636 0001823 268.7667  28.9774 15.87911328  2662"
      },
      "geometry": {
        "type": "Point",
        "coordinates": [
          92.97041768176894,
          -24.412889024959572
        ]
      }
    },
    {
      "type": "Feature",
      "properties": {
        "norad_id": 67128,
        "name": "STARLINK-35685",
        "group": "last-30-days",
        "lat": -27.177853065866948,
        "lon": 97.24481549799893,
        "alt_km": 313.86439085111306,
        "timestamp": "2025-12-24T14:43:27.724649+00:00",
        "meta_object_name": "STARLINK-35685",
        "meta_object_id": "2025-299AC",
        "meta_epoch": "2025-12-24T06:00:02.000160",
        "meta_mean_motion": 15.87873915,
        "meta_eccentricity": 0.00018138,
        "meta_inclination": 42.9975,
        "meta_ra_of_asc_node": 246.0512,
        "meta_arg_of_pericenter": 268.2609,
        "meta_mean_anomaly": 34.2747,
        "meta_ephemeris_type": 0,
        "meta_classification_type": "U",
        "meta_norad_cat_id": 67128,
        "meta_element_set_no": 999,
        "meta_rev_at_epoch": 266,
        "meta_bstar": -0.0071902126,
        "meta_mean_motion_dot": -0.01740736,
        "meta_mean_motion_ddot": 0,
        "tle_line1": "1 67128U 25299AC  25358.25002315 -.01740736  00000+0 -71902-2 0  9992",
        "tle_line2": "2 67128  42.9975 246.0512 0001813 268.2609  34.2747 15.87873915  2663"
      },
      "geometry": {
        "type": "Point",
        "coordinates": [
          97.24481549799893,
          -27.177853065866948
        ]
      }
    },
    {
      "type": "Feature",
      "properties": {
        "norad_id": 67129,
        "name": "STARLINK-36214",
        "group": "last-30-days",
        "lat": -25.569816850474055,
        "lon": 94.71135920695066,
        "alt_km": 313.7562454857316,
        "timestamp": "2025-12-24T14:43:27.724660+00:00",
        "meta_object_name": "STARLINK-36214",
        "meta_object_id": "2025-299AD",
        "meta_epoch": "2025-12-24T06:00:02.000160",
        "meta_mean_motion": 15.87903041,
        "meta_eccentricity": 0.00018315,
        "meta_inclination": 42.9975,
        "meta_ra_of_asc_node": 246.0584,
        "meta_arg_of_pericenter": 268.852,
        "meta_mean_anomaly": 30.8638,
        "meta_ephemeris_type": 0,
        "meta_classification_type": "U",
        "meta_norad_cat_id": 67129,
        "meta_element_set_no": 999,
        "meta_rev_at_epoch": 266,
        "meta_bstar": -0.0072327134,
        "meta_mean_motion_dot": -0.01751821,
        "meta_mean_motion_ddot": 0,
        "tle_line1": "1 67129U 25299AD  25358.25002315 -.01751821  00000+0 -72327-2 0  9992",
        "tle_line2": "2 67129  42.9975 246.0584 0001831 268.8520  30.8638 15.87903041  2666"
      },
      "geometry": {
        "type": "Point",
        "coordinates": [
          94.71135920695066,
          -25.569816850474055
        ]
      }
    }
  ]
}